CCSDS_OMM_VERS = 2.0
CREATION_DATE  = 
ORIGINATOR     = 

OBJECT_NAME    = 2025-226A
OBJECT_ID      = 2025-226A
CENTER_NAME    = EARTH
REF_FRAME      = TEME
TIME_SYSTEM    = UTC
MEAN_ELEMENT_THEORY = SGP/SGP4

EPOCH          = 2025-10-30T20:50:29.341824
MEAN_MOTION    = 15.11825120
ECCENTRICITY   = .001458
INCLINATION    = 97.6668
RA_OF_ASC_NODE = 18.0567
ARG_OF_PERICENTER = 211.9195
MEAN_ANOMALY   = 148.1153

EPHEMERIS_TYPE = 0
CLASSIFICATION_TYPE = U
NORAD_CAT_ID   = 65938
ELEMENT_SET_NO = 999
REV_AT_EPOCH   = 299
BSTAR          = .83243E-3
MEAN_MOTION_DOT = .14209E-3
MEAN_MOTION_DDOT = 0

CCSDS_OMM_VERS = 2.0
CREATION_DATE  = 
ORIGINATOR     = 

OBJECT_NAME    = 2025-226B
OBJECT_ID      = 2025-226B
CENTER_NAME    = EARTH
REF_FRAME      = TEME
TIME_SYSTEM    = UTC
MEAN_ELEMENT_THEORY = SGP/SGP4

EPOCH          = 2025-10-30T21:21:36.351648
MEAN_MOTION    = 15.09690938
ECCENTRICITY   = .0020753
INCLINATION    = 97.6626
RA_OF_ASC_NODE = 18.0182
ARG_OF_PERICENTER = 216.3750
MEAN_ANOMALY   = 143.6070

EPHEMERIS_TYPE = 0
CLASSIFICATION_TYPE = U
NORAD_CAT_ID   = 65939
ELEMENT_SET_NO = 999
REV_AT_EPOCH   = 298
BSTAR          = .56873E-3
MEAN_MOTION_DOT = .9148E-4
MEAN_MOTION_DDOT = 0

CCSDS_OMM_VERS = 2.0
CREATION_DATE  = 
ORIGINATOR     = 

OBJECT_NAME    = 2025-226C
OBJECT_ID      = 2025-226C
CENTER_NAME    = EARTH
REF_FRAME      = TEME
TIME_SYSTEM    = UTC
MEAN_ELEMENT_THEORY = SGP/SGP4

EPOCH          = 2025-10-30T20:52:35.401152
MEAN_MOTION    = 15.11713493
ECCENTRICITY   = .0014549
INCLINATION    = 97.6577
RA_OF_ASC_NODE = 18.0333
ARG_OF_PERICENTER = 209.8299
MEAN_ANOMALY   = 150.2103

EPHEMERIS_TYPE = 0
CLASSIFICATION_TYPE = U
NORAD_CAT_ID   = 65940
ELEMENT_SET_NO = 999
REV_AT_EPOCH   = 298
BSTAR          = .83764E-3
MEAN_MOTION_DOT = .14254E-3
MEAN_MOTION_DDOT = 0

CCSDS_OMM_VERS = 2.0
CREATION_DATE  = 
ORIGINATOR     = 

OBJECT_NAME    = YOTSUBA-KULOVER
OBJECT_ID      = 1998-067XN
CENTER_NAME    = EARTH
REF_FRAME      = TEME
TIME_SYSTEM    = UTC
MEAN_ELEMENT_THEORY = SGP/SGP4

EPOCH          = 2025-10-30T05:38:07.044864
MEAN_MOTION    = 15.52948261
ECCENTRICITY   = .00025134
INCLINATION    = 51.6334
RA_OF_ASC_NODE = 357.5299
ARG_OF_PERICENTER = 335.1462
MEAN_ANOMALY   = 24.9407

EPHEMERIS_TYPE = 0
CLASSIFICATION_TYPE = U
NORAD_CAT_ID   = 65941
ELEMENT_SET_NO = 999
REV_AT_EPOCH   = 308
BSTAR          = .10296449E-2
MEAN_MOTION_DOT = .65369E-3
MEAN_MOTION_DDOT = 0

CCSDS_OMM_VERS = 2.0
CREATION_DATE  = 
ORIGINATOR     = 

OBJECT_NAME    = BOTAN
OBJECT_ID      = 1998-067XP
CENTER_NAME    = EARTH
REF_FRAME      = TEME
TIME_SYSTEM    = UTC
MEAN_ELEMENT_THEORY = SGP/SGP4

EPOCH          = 2025-10-30T05:31:14.732832
MEAN_MOTION    = 15.53700317
ECCENTRICITY   = .00045628
INCLINATION    = 51.6334
RA_OF_ASC_NODE = 357.4989
ARG_OF_PERICENTER = 354.4119
MEAN_ANOMALY   = 5.6819

EPHEMERIS_TYPE = 0
CLASSIFICATION_TYPE = U
NORAD_CAT_ID   = 65942
ELEMENT_SET_NO = 999
REV_AT_EPOCH   = 308
BSTAR          = .13309321E-2
MEAN_MOTION_DOT = .87247E-3
MEAN_MOTION_DDOT = 0

CCSDS_OMM_VERS = 2.0
CREATION_DATE  = 
ORIGINATOR     = 

OBJECT_NAME    = E-KAGAKU-1
OBJECT_ID      = 1998-067XQ
CENTER_NAME    = EARTH
REF_FRAME      = TEME
TIME_SYSTEM    = UTC
MEAN_ELEMENT_THEORY = SGP/SGP4

EPOCH          = 2025-10-29T12:38:09.926592
MEAN_MOTION    = 15.52865826
ECCENTRICITY   = .0004142
INCLINATION    = 51.6334
RA_OF_ASC_NODE = 1.0497
ARG_OF_PERICENTER = 339.6599
MEAN_ANOMALY   = 20.4226

EPHEMERIS_TYPE = 0
CLASSIFICATION_TYPE = U
NORAD_CAT_ID   = 65943
ELEMENT_SET_NO = 999
REV_AT_EPOCH   = 297
BSTAR          = .88576289E-3
MEAN_MOTION_DOT = .55943E-3
MEAN_MOTION_DDOT = 0

CCSDS_OMM_VERS = 2.0
CREATION_DATE  = 
ORIGINATOR     = 

OBJECT_NAME    = 2025-226D
OBJECT_ID      = 2025-226D
CENTER_NAME    = EARTH
REF_FRAME      = TEME
TIME_SYSTEM    = UTC
MEAN_ELEMENT_THEORY = SGP/SGP4

EPOCH          = 2025-10-17T22:42:20.181888
MEAN_MOTION    = 15.16526485
ECCENTRICITY   = .0019022
INCLINATION    = 97.6632
RA_OF_ASC_NODE = 5.1263
ARG_OF_PERICENTER = 287.2735
MEAN_ANOMALY   = 72.6416

EPHEMERIS_TYPE = 0
CLASSIFICATION_TYPE = U
NORAD_CAT_ID   = 65944
ELEMENT_SET_NO = 999
REV_AT_EPOCH   = 102
BSTAR          = 0
MEAN_MOTION_DOT = -.71E-6
MEAN_MOTION_DDOT = 0

CCSDS_OMM_VERS = 2.0
CREATION_DATE  = 
ORIGINATOR     = 

OBJECT_NAME    = SHIYAN-31
OBJECT_ID      = 2025-227A
CENTER_NAME    = EARTH
REF_FRAME      = TEME
TIME_SYSTEM    = UTC
MEAN_ELEMENT_THEORY = SGP/SGP4

EPOCH          = 2025-10-30T20:06:15.075072
MEAN_MOTION    = 15.20306947
ECCENTRICITY   = .0011558
INCLINATION    = 80.0037
RA_OF_ASC_NODE = 78.8781
ARG_OF_PERICENTER = 211.5956
MEAN_ANOMALY   = 148.4578

EPHEMERIS_TYPE = 0
CLASSIFICATION_TYPE = U
NORAD_CAT_ID   = 65945
ELEMENT_SET_NO = 999
REV_AT_EPOCH   = 265
BSTAR          = .5666E-3
MEAN_MOTION_DOT = .12359E-3
MEAN_MOTION_DDOT = 0

CCSDS_OMM_VERS = 2.0
CREATION_DATE  = 
ORIGINATOR     = 

OBJECT_NAME    = CZ-2D R/B
OBJECT_ID      = 2025-227B
CENTER_NAME    = EARTH
REF_FRAME      = TEME
TIME_SYSTEM    = UTC
MEAN_ELEMENT_THEORY = SGP/SGP4

EPOCH          = 2025-10-30T19:45:44.566272
MEAN_MOTION    = 15.27383895
ECCENTRICITY   = .0021439
INCLINATION    = 80.1539
RA_OF_ASC_NODE = 79.1790
ARG_OF_PERICENTER = 337.8653
MEAN_ANOMALY   = 22.1650

EPHEMERIS_TYPE = 0
CLASSIFICATION_TYPE = U
NORAD_CAT_ID   = 65946
ELEMENT_SET_NO = 999
REV_AT_EPOCH   = 266
BSTAR          = .52782E-3
MEAN_MOTION_DOT = .14275E-3
MEAN_MOTION_DDOT = 0

CCSDS_OMM_VERS = 2.0
CREATION_DATE  = 
ORIGINATOR     = 

OBJECT_NAME    = KUIPER-00101
OBJECT_ID      = 2025-228A
CENTER_NAME    = EARTH
REF_FRAME      = TEME
TIME_SYSTEM    = UTC
MEAN_ELEMENT_THEORY = SGP/SGP4

EPOCH          = 2025-10-30T03:56:52.075968
MEAN_MOTION    = 15.34881663
ECCENTRICITY   = .0006566
INCLINATION    = 51.8782
RA_OF_ASC_NODE = 230.4939
ARG_OF_PERICENTER = 212.6303
MEAN_ANOMALY   = 147.4278

EPHEMERIS_TYPE = 0
CLASSIFICATION_TYPE = U
NORAD_CAT_ID   = 65947
ELEMENT_SET_NO = 999
REV_AT_EPOCH   = 372
BSTAR          = .86706472E-2
MEAN_MOTION_DOT = .310053E-2
MEAN_MOTION_DDOT = 0

CCSDS_OMM_VERS = 2.0
CREATION_DATE  = 
ORIGINATOR     = 

OBJECT_NAME    = KUIPER-00113
OBJECT_ID      = 2025-228B
CENTER_NAME    = EARTH
REF_FRAME      = TEME
TIME_SYSTEM    = UTC
MEAN_ELEMENT_THEORY = SGP/SGP4

EPOCH          = 2025-10-30T19:30:33.128352
MEAN_MOTION    = 15.34979974
ECCENTRICITY   = .0006368
INCLINATION    = 51.8786
RA_OF_ASC_NODE = 227.3434
ARG_OF_PERICENTER = 192.1759
MEAN_ANOMALY   = 167.9074

EPHEMERIS_TYPE = 0
CLASSIFICATION_TYPE = U
NORAD_CAT_ID   = 65948
ELEMENT_SET_NO = 999
REV_AT_EPOCH   = 382
BSTAR          = .14552E-2
MEAN_MOTION_DOT = .50112E-3
MEAN_MOTION_DDOT = 0

CCSDS_OMM_VERS = 2.0
CREATION_DATE  = 
ORIGINATOR     = 

OBJECT_NAME    = KUIPER-00117
OBJECT_ID      = 2025-228C
CENTER_NAME    = EARTH
REF_FRAME      = TEME
TIME_SYSTEM    = UTC
MEAN_ELEMENT_THEORY = SGP/SGP4

EPOCH          = 2025-10-30T19:31:12.730656
MEAN_MOTION    = 15.34934665
ECCENTRICITY   = .0006118
INCLINATION    = 51.8787
RA_OF_ASC_NODE = 227.3464
ARG_OF_PERICENTER = 192.5548
MEAN_ANOMALY   = 167.5286

EPHEMERIS_TYPE = 0
CLASSIFICATION_TYPE = U
NORAD_CAT_ID   = 65949
ELEMENT_SET_NO = 999
REV_AT_EPOCH   = 382
BSTAR          = .14415E-2
MEAN_MOTION_DOT = .49556E-3
MEAN_MOTION_DDOT = 0

